"2003J16" "Sol/Jupiter"
{
	Texture	 	"asteroid.jpg"
	Mesh		"asteroid.cms"
	Radius		1.0

	EllipticalOrbit
	{
	Epoch		2452644.5	# 2003 Jan 5
	Period		598.04		# mean
	SemiMajorAxis	20464000	# mean
	Eccentricity	0.2419		# mean
	Inclination	147.023
	AscendingNode	41.597
	ArgOfPericenter	76.683
	MeanAnomaly     201.357
	}

	RotationPeriod  10   # Guess

	Albedo 0.04
}

"2003J17" "Sol/Jupiter"
{
	Texture	 	"asteroid.jpg"
	Mesh		"asteroid.cms"
	Radius		1.0

	EllipticalOrbit
	{
	Epoch		2452644.5	# 2003 Jan 5
	Period		708.81		# mean
	SemiMajorAxis	22918000	# mean
	Eccentricity	0.1947		# mean
	Inclination	161.891
	AscendingNode	332.582
	ArgOfPericenter	346.951
	MeanAnomaly     317.640
	}

	RotationPeriod  10   # Guess

	Albedo 0.04
}

"2003J18" "Sol/Jupiter"
{
	Texture	 	"asteroid.jpg"
	Mesh		"asteroid.cms"
	Radius		1.0

	EllipticalOrbit
	{
	Epoch		2452644.5	# 2003 Jan 5
	Period		511.75		# mean
	SemiMajorAxis	18445000	# mean
	Eccentricity	0.2322		# mean
	Inclination	147.041
	AscendingNode	207.615
	ArgOfPericenter	123.097
	MeanAnomaly     176.706
	}

	RotationPeriod  10   # Guess

	Albedo 0.04
}

"2003J19" "Sol/Jupiter"
{
	Texture	 	"asteroid.jpg"
	Mesh		"asteroid.cms"
	Radius		1.0

	EllipticalOrbit
	{
	Epoch		2452644.5	# 2003 Jan 5
	Period		728.84		# mean
	SemiMajorAxis	23348000	# mean
	Eccentricity	0.3108		# mean
	Inclination	161.966
	AscendingNode	53.230
	ArgOfPericenter	178.522
	MeanAnomaly     35.719
	}

	RotationPeriod  10   # Guess

	Albedo 0.04
}

"2003J20" "Sol/Jupiter"
{
	Texture	 	"asteroid.jpg"
	Mesh		"asteroid.cms"
	Radius		1.5

	EllipticalOrbit
	{
	Epoch		2452644.5	# 2003 Jan 5
	Period		454.13		# mean
	SemiMajorAxis	17033000	# mean
	Eccentricity	0.2886		# mean
	Inclination	54.548
	AscendingNode	71.342
	ArgOfPericenter	78.116
	MeanAnomaly     141.864
	}

	RotationPeriod  10   # Guess

	Albedo 0.04
}

"2003J21" "Sol/Jupiter"
{
	Texture	 	"asteroid.jpg"
	Mesh		"asteroid.cms"
	Radius		1.0

	EllipticalOrbit
	{
	Epoch		2452644.5	# 2003 Jan 5
	Period		613.40		# mean
	SemiMajorAxis	20813000	# mean
	Eccentricity	0.1886		# mean
	Inclination	145.821
	AscendingNode	36.877
	ArgOfPericenter	58.289
	MeanAnomaly     156.264
	}

	RotationPeriod  10   # Guess

	Albedo 0.04
}

# Additional moons of Saturn

"Ymir" "Sol/Saturn"
{
	Texture	 	"asteroid.jpg"
	Mesh		"asteroid.cms"
	Radius		8

	EllipticalOrbit
	{
	Period		1312.37
	SemiMajorAxis	23096000
	Eccentricity	0.3331
	Inclination	145.961	#
	AscendingNode	7.260	#
	ArgOfPericenter	16.394	# J2000.0
	MeanAnomaly     216.669	#
	}

	RotationPeriod  10   # Guess

	Albedo 0.06
}

"Paaliaq" "Sol/Saturn"
{
	Texture	 	"asteroid.jpg"
	Mesh		"asteroid.cms"
	Radius		9.5

	EllipticalOrbit
	{
	Period		686.91
	SemiMajorAxis	15199000
	Eccentricity	0.3636
	Inclination	75.327	#
	AscendingNode	182.777	#
	ArgOfPericenter	239.203	# J2000.0
	MeanAnomaly     304.651	#
	}

	RotationPeriod  10   # Guess

	Albedo 0.06
}

"Siarnaq" "Sol/Saturn"
{
	Texture	 	"asteroid.jpg"
	Mesh		"asteroid.cms"
	Radius		16

	EllipticalOrbit
	{
	Period		893.08
	SemiMajorAxis	18160000
	Eccentricity	0.2948
	Inclination	60.642	#
	AscendingNode	235.860	#
	ArgOfPericenter	99.707	# J2000.0
	MeanAnomaly     190.719	#
	}

	RotationPeriod  10   # Guess

	Albedo 0.06
}

"Tarvos" "Sol/Saturn"
{
	Texture	 	"asteroid.jpg"
	Mesh		"asteroid.cms"
	Radius		6.5

	EllipticalOrbit
	{
	Period		925.60
	SemiMajorAxis	18247000
	Eccentricity	0.5355
	Inclination	36.341	#
	AscendingNode	244.676	#
	ArgOfPericenter	332.621	# J2000.0
	MeanAnomaly     255.729	#
	}

	RotationPeriod  10   # Guess

	Albedo 0.06
}

"Kiviuq" "Sol/Saturn"
{
	Texture	 	"asteroid.jpg"
	Mesh		"asteroid.cms"
	Radius		7

	EllipticalOrbit
	{
	Period		449.22
	SemiMajorAxis	11365000
	Eccentricity	0.3335
	Inclination	76.796	#
	AscendingNode	182.386	#
	ArgOfPericenter	93.291	# J2000.0
	MeanAnomaly     168.548	#
	}

	RotationPeriod  10   # Guess

	Albedo 0.06
}

"Ijiraq" "Sol/Saturn"
{
	Texture	 	"asteroid.jpg"
	Mesh		"asteroid.cms"
	Radius		5

	EllipticalOrbit
	{
	Period		451.48
	SemiMajorAxis	11440000
	Eccentricity	0.3216
	Inclination	23.892	#
	AscendingNode	326.568	#
	ArgOfPericenter	88.423	# J2000.0
	MeanAnomaly     28.424	#
	}

	RotationPeriod  10   # Guess

	Albedo 0.06
}

"Thrym" "Sol/Saturn"
{
	Texture	 	"asteroid.jpg"
	Mesh		"asteroid.cms"
	Radius		2.8

	EllipticalOrbit
	{
	Period		1086.91
	SemiMajorAxis	20382000
	Eccentricity	0.4701
	Inclination	150.486	#
	AscendingNode	10.020	#
	ArgOfPericenter	23.091	# J2000.0
	MeanAnomaly     350.670	#
	}

	RotationPeriod  10   # Guess

	Albedo 0.06
}

"Skadi" "Sol/Saturn"
{
	Texture	 	"asteroid.jpg"
	Mesh		"asteroid.cms"
	Radius		3.2

	EllipticalOrbit
	{
	Period		728.93
	SemiMajorAxis	15647000
	Eccentricity	0.2697
	Inclination	148.361	#
	AscendingNode	67.100	#
	ArgOfPericenter	148.021	# J2000.0
	MeanAnomaly     117.271	#
	}

	RotationPeriod  10   # Guess

	Albedo 0.06
}

"Mundilfari" "Sol/Saturn"
{
	Texture	 	"asteroid.jpg"
	Mesh		"asteroid.cms"
	Radius		2.8

	EllipticalOrbit
	{
	Period		951.38
	SemiMajorAxis	18709000
	Eccentricity	0.2078
	Inclination	150.253	#
	AscendingNode	338.432	#
	ArgOfPericenter	16.508	# J2000.0
	MeanAnomaly     97.432	#
	}

	RotationPeriod  10   # Guess

	Albedo 0.06
}

"Erriapo" "Sol/Saturn"
{
	Texture	 	"asteroid.jpg"
	Mesh		"asteroid.cms"
	Radius		4.3

	EllipticalOrbit
	{
	Period		871.92
	SemiMajorAxis	17616000
	Eccentricity	0.4740
	Inclination	13.545	#
	AscendingNode	286.903	#
	ArgOfPericenter	332.997	# J2000.0
	MeanAnomaly     306.656	#
	}

	RotationPeriod  10   # Guess

	Albedo 0.06
}

"Albiorix" "Sol/Saturn"
{
	Texture	 	"asteroid.jpg"
	Mesh		"asteroid.cms"
	Radius		13

	EllipticalOrbit
	{
	Period		783.45
	SemiMajorAxis	16404000
	Eccentricity	0.4778
	Inclination	31.518	#
	AscendingNode	259.354	#
	ArgOfPericenter	112.808	# J2000.0
	MeanAnomaly     17.224	#
	}

	RotationPeriod  10   # Guess

	Albedo 0.06
}

"Suttung" "Sol/Saturn"
{
	Texture	 	"asteroid.jpg"
	Mesh		"asteroid.cms"
	Radius		2.8

	EllipticalOrbit
	{
	Period		1016.31
	SemiMajorAxis	19463000
	Eccentricity	0.1138
	Inclination	150.914	#
	AscendingNode	10.905	#
	ArgOfPericenter	350.499	# J2000.0
	MeanAnomaly     317.642	#
	}

	RotationPeriod  10   # Guess

	Albedo 0.06
}

"2003S1" "Sol/Saturn"
{
	Texture	 	"asteroid.jpg"
	Mesh		"asteroid.cms"
	Radius		3.3

	EllipticalOrbit
	{
	Epoch		2452629.5	# 2002 Dec 21
	Period		956.19		# mean
	SemiMajorAxis	18719000	# mean
	Eccentricity	0.3522		# mean
	Inclination	106.989
	AscendingNode	9.524
	ArgOfPericenter	172.396
	MeanAnomaly     139.109
	}

	RotationPeriod  10   # Guess

	Albedo 0.06
}


# Additional moons of Uranus

"Trinculo" "Sol/Uranus"
{
	Texture	 	"asteroid.jpg"
	Mesh		"asteroid.cms"
	Radius		10

	EllipticalOrbit
	{
	Period		749.24
	SemiMajorAxis	8504000
	Eccentricity	0.2200
	Inclination	109.490 #
	AscendingNode	187.574	#
	ArgOfPericenter	308.839	# J2000.0
	MeanAnomaly     182.392	#
	}

	RotationPeriod  10   # Guess

	Albedo 0.07
}

"2001U2" "Sol/Uranus"
{
	Texture	 	"asteroid.jpg"
	Mesh		"asteroid.cms"
	Radius		6

	EllipticalOrbit
	{
	Period		2887.21
	SemiMajorAxis	20901000
	Eccentricity	0.3682
	Inclination	104.660 #
	AscendingNode	190.695	#
	ArgOfPericenter	289.325	# J2000.0
	MeanAnomaly     25.166	#
	}

	RotationPeriod  10   # Guess

	Albedo 0.07
}


# Additional moons of Neptune

"2002N1" "Sol/Neptune"
{
	Texture	 	"asteroid.jpg"
	Mesh		"asteroid.cms"
	Radius		24

	EllipticalOrbit
	{
	Period		1874.83
	SemiMajorAxis	15686000
	Eccentricity	0.5720
	Inclination	138.937	#
	AscendingNode	162.954	#
	ArgOfPericenter	148.033	# J2000.0
	MeanAnomaly     229.825	#
	}

	RotationPeriod  10   # Guess

	Albedo 0.155
}

"2002N2" "Sol/Neptune"
{
	Texture	 	"asteroid.jpg"
	Mesh		"asteroid.cms"
	Radius		24

	EllipticalOrbit
	{
	Period		2918.94
	SemiMajorAxis	22452000
	Eccentricity	0.2973
	Inclination	26.278	#
	AscendingNode	23.901	#
	ArgOfPericenter	48.159	# J2000.0
	MeanAnomaly     14.134	#
	}

	RotationPeriod  10   # Guess

	Albedo 0.155
}

"2002N3" "Sol/Neptune"
{
	Texture	 	"asteroid.jpg"
	Mesh		"asteroid.cms"
	Radius		24

	EllipticalOrbit
	{
	Period		2982.27
	SemiMajorAxis	22580000
	Eccentricity	0.4789
	Inclination	11.799	#
	AscendingNode	14.281	#
	ArgOfPericenter	128.853	# J2000.0
	MeanAnomaly     141.864	#
	}

	RotationPeriod  10   # Guess

	Albedo 0.155
}

"2002N4" "Sol/Neptune"
{
	Texture	 	"asteroid.jpg"
	Mesh		"asteroid.cms"
	Radius		30

	EllipticalOrbit
	{
	Period		8863.08
	SemiMajorAxis	46570000
	Eccentricity	0.5273
	Inclination	112.492	#
	AscendingNode	355.870	#
	ArgOfPericenter	 83.635	# J2000.0
	MeanAnomaly     203.660	#
	}

	RotationPeriod  10   # Guess

	Albedo 0.155
}

"2003N1" "Sol/Neptune"
{
	Texture	 	"asteroid.jpg"
	Mesh		"asteroid.cms"
	Radius		14

	EllipticalOrbit
	{
	Period		9136.11
	SemiMajorAxis	46738000
	Eccentricity	0.4503
	Inclination	118.728	#
	AscendingNode	288.166	#
	ArgOfPericenter	161.337	# J2000.0
	MeanAnomaly     182.124	#
	}

	RotationPeriod  10   # Guess

	Albedo 0.155
}




